GLOBALSTAR M035 [-]     
1 25851U 99037A   23351.26681733 -.00000084  00000+0 -77669-3 0  9990
2 25851  51.9911 196.8634 0013706 167.5127 359.1488 11.04528503 35715
GLOBALSTAR M032 [-]     
1 25852U 99037B   23351.41888044 -.00000037  00000+0  95886-3 0  9990
2 25852  51.9972  59.5165 0007960 323.5989  36.4269 11.19047023 73467
GLOBALSTAR M051 [-]     
1 25853U 99037C   23351.13546577 -.00000033  00000+0  95566-3 0  9993
2 25853  51.9804 282.9858 0001747 338.1745  21.8991 11.42193963 69761
GLOBALSTAR M048 [-]     
1 25872U 99041A   23350.87223473 -.00000077  00000+0 -17676-3 0  9991
2 25872  51.9331 197.4498 0012452 320.8390 137.5056 11.33842199 62780
GLOBALSTAR M026 [-]     
1 25873U 99041B   23351.24268250 -.00000082  00000+0 -66745-3 0  9993
2 25873  52.0032 320.6546 0001884  57.2835  45.1576 11.06833380 87811
GLOBALSTAR M043 [-]     
1 25874U 99041C   23351.12909503 -.00000095  00000+0 -79848-3 0  9996
2 25874  51.9409 282.6420 0013597  95.7453   4.0263 11.25674454 61155
GLOBALSTAR M028 [-]     
1 25875U 99041D   23351.42468973 -.00000082  00000+0  11474-3 0  9997
2 25875  51.9647  26.3440 0063176 322.0104  37.6310 12.50546064121642
